[{"OBJECT_NAME":"STARLINK-3888","OBJECT_ID":"2022-049D","EPOCH":"2026-03-09T23:21:25.648992","MEAN_MOTION":15.08844246,"ECCENTRICITY":0.00014882,"INCLINATION":53.2179,"RA_OF_ASC_NODE":67.8491,"ARG_OF_PERICENTER":74.7689,"MEAN_ANOMALY":285.3468,"EPHEMERIS_TYPE":0,"CLASSIFICATION_TYPE":"U","NORAD_CAT_ID":52454,"ELEMENT_SET_NO":999,"REV_AT_EPOCH":21215,"BSTAR":1.0109511e-5,"MEAN_MOTION_DOT":-1.27e-6,"MEAN_MOTION_DDOT":0},{"OBJECT_NAME":"SL-24 R\/B","OBJECT_ID":"2015-014C","EPOCH":"2026-03-09T13:33:24.155424","MEAN_MOTION":13.7773905,"ECCENTRICITY":0.0610763,"INCLINATION":97.3421,"RA_OF_ASC_NODE":264.7198,"ARG_OF_PERICENTER":166.3876,"MEAN_ANOMALY":195.462,"EPHEMERIS_TYPE":0,"CLASSIFICATION_TYPE":"U","NORAD_CAT_ID":40541,"ELEMENT_SET_NO":999,"REV_AT_EPOCH":55007,"BSTAR":0.00021162,"MEAN_MOTION_DOT":8.42e-6,"MEAN_MOTION_DDOT":0}]
